{"fetched_at":"2026-05-16T20:45:34Z","count":5201,"tles":[{"name":"NUSAT-28 (ALICE LEE)","line1":"1 52747U 22057R   26077.44886485  .04527044  25641-5  73258-3 0  9997","line2":"2 52747  97.4934 228.6472 0011088 277.4893  82.5143 16.33471320213461","category":"Other"},{"name":"NUSAT-20 (GRACE)","line1":"1 48921U 21059AU  23315.12909187  .10955392  25426-5  41667-3 0  9997","line2":"2 48921  97.3814 104.8351 0010433 276.4819  83.5294 16.43156695133800","category":"Other"},{"name":"BEIDOU-2 G3","line1":"1 36590U 10024A   26133.83557168 -.00000119  00000+0  00000+0 0  9998","line2":"2 36590   4.4342  61.6487 0008717 345.2048 205.0602  1.00268876 58425","category":"GPS"},{"name":"JILIN-1 GAOFEN 4A","line1":"1 52388U 22046A   25350.29229118  .04228181  25162-5  10643-2 0  9992","line2":"2 52388  97.4754 100.0865 0008050 290.6680  69.3750 16.28950252202192","category":"Other"},{"name":"NEUSAR","line1":"1 52937U 22072C   23362.29789057  .00011749  00000+0  69195-3 0  9996","line2":"2 52937   9.9786  24.8027 0001716  85.5833 274.4578 15.07997321 82222","category":"Other"},{"name":"GSAT0222 (GALILEO 26)","line1":"1 43565U 18060B   26134.84934365 -.00000061  00000+0  00000+0 0  9992","line2":"2 43565  57.1832 342.6843 0001984 278.7682  81.2509  1.70475397 48643","category":"GPS"},{"name":"EWS-G2 (GOES 15)","line1":"1 36411U 10008A   26135.11572278  .00000035  00000+0  00000+0 0  9990","line2":"2 36411   1.1886  83.4096 0004642  31.0279 223.4260  1.00273400 59302","category":"Weather"},{"name":"GLOBAL-20","line1":"1 52197U 22034C   25090.58209948  .06448525  12377-4  58860-3 0  9994","line2":"2 52197  52.9605 131.5757 0005433 326.2543  33.8155 16.38079246169593","category":"Other"},{"name":"BEIDOU-2 G4","line1":"1 37210U 10057A   26135.20618178 -.00000099  00000+0  00000+0 0  9993","line2":"2 37210   3.5646  69.1298 0005637 209.3825 188.6387  1.00272234 56962","category":"GPS"},{"name":"NUSAT-30 (MARGHERITA)","line1":"1 52748U 22057S   23362.46771723  .00023318  00000+0  72596-3 0  9993","line2":"2 52748  97.3976 115.5247 0004724 320.9799  39.1102 15.33279948 88722","category":"Other"},{"name":"CARCARA 1 (ICEYE-X18)","line1":"1 52749U 22057T   23362.46647419  .00023333  00000+0  10144-2 0  9995","line2":"2 52749  97.5512 118.1578 0015759  31.6119 328.6060 15.22164983 88144","category":"Other"},{"name":"GPS BIIF-6","line1":"1 39741U 14026A   26134.05786260 -.00000051  00000+0  00000+0 0  9992","line2":"2 39741  56.5142 332.8462 0038618 326.8645  32.9252  2.00563452 87855","category":"GPS"},{"name":"GSAT0217 (GALILEO 21)","line1":"1 43057U 17079C   26135.09239620  .00000018  00000+0  00000+0 0  9998","line2":"2 43057  55.0805 222.4152 0003437 290.5640  69.4503  1.70474741 52420","category":"GPS"},{"name":"NUSAT-19 (ROSALIND)","line1":"1 48905U 21059AC  24296.61828834  .04676707  25871-5  11711-2 0  9994","line2":"2 48905  97.5684  99.7066 0007249 266.7612  93.2852 16.29026708185831","category":"Other"},{"name":"CAPELLA-6-WHITNEY","line1":"1 48605U 21041BE  23362.49190805  .00105963  00000+0  28544-2 0  9991","line2":"2 48605  53.0293 151.2332 0006978 275.4158  84.6048 15.36992166143978","category":"Other"},{"name":"GSAT0211 (GALILEO 14)","line1":"1 41549U 16030A   26134.36115200  .00000014  00000+0  00000+0 0  9990","line2":"2 41549  55.1049 222.6253 0002568 339.5667  20.4689  1.70474048 62092","category":"GPS"},{"name":"GOES 14","line1":"1 35491U 09033A   26135.20253274 -.00000126  00000+0  00000+0 0  9997","line2":"2 35491   1.6053  83.4092 0001648 336.0442  46.7808  1.00117365  6267","category":"Weather"},{"name":"GSAT0219 (GALILEO 23)","line1":"1 43566U 18060C   26132.72394273 -.00000058  00000+0  00000+0 0  9992","line2":"2 43566  57.1830 342.7433 0002967 333.6508  26.3774  1.70475738 48584","category":"GPS"},{"name":"CAPELLA-8-WHITNEY","line1":"1 51071U 22002CR  23249.06545155  .35393296  25458-5  30023-2 0  9990","line2":"2 51071  97.4006 322.5782 0015575 273.5387 175.0653 16.38892911 91532","category":"Other"},{"name":"GSAT0218 (GALILEO 22)","line1":"1 43058U 17079D   26132.37953886  .00000008  00000+0  00000+0 0  9993","line2":"2 43058  55.0821 222.4876 0004926 272.6757  87.3056  1.70474709 52400","category":"GPS"},{"name":"UMBRA-2001","line1":"1 48906U 21059AD  24121.62758556  .29722499  26589-5  18310-2 0  9992","line2":"2 48906  97.5682 263.1127 0014831 247.0672 239.4234 16.40337929157692","category":"Other"},{"name":"GSAT0213 (GALILEO 17)","line1":"1 41861U 16069C   26133.35764116  .00000054  00000+0  00000+0 0  9997","line2":"2 41861  55.4778 102.0522 0005700 305.7481  54.1710  1.70474359 58922","category":"GPS"},{"name":"GLOBAL-15","line1":"1 49470U 21106B   24263.52959395  .06298110  85973-5  86970-3 0  9995","line2":"2 49470  41.9728  26.3803 0011852 348.5756  11.4847 16.33859183160351","category":"Other"},{"name":"COSMOS 2425 (716)","line1":"1 29670U 06062A   08024.29280838 -.00000017  00000-0  10000-3 0  3191","line2":"2 29670  65.0562  60.3027 0024396 346.8929 347.5633  2.13103461  8395","category":"Other"},{"name":"GSAT0210 (GALILEO 13)","line1":"1 41550U 16030B   26133.44525435  .00000011  00000+0  00000+0 0  9992","line2":"2 41550  55.1034 222.6485 0003179 230.8453 129.1673  1.70474089 62073","category":"GPS"},{"name":"GSAT0220 (GALILEO 24)","line1":"1 43567U 18060D   26133.53149004 -.00000058  00000+0  00000+0 0  9993","line2":"2 43567  57.1827 342.7223 0003105 325.7445  34.2788  1.70475539 48587","category":"GPS"},{"name":"QPS-SAR-1 (IZANAGI)","line1":"1 44856U 19089E   23362.39285563  .00029937  00000+0  13412-2 0  9993","line2":"2 44856  36.9619 351.5980 0006688 178.8945 181.1819 15.20403969222390","category":"Other"},{"name":"NUSAT-31 (RUBY PAYNE-S)","line1":"1 52752U 22057W   26090.67473675  .10764115  27296-5  28016-3 0  9995","line2":"2 52752  97.6233 263.4282 0010813 259.2874 100.7210 16.45001621215498","category":"Other"},{"name":"CAPELLA-7-WHITNEY","line1":"1 51072U 22002CS  23238.82225039  .46900511  25751-5  11137-2 0  9996","line2":"2 51072  97.3947 311.3663 0015288 273.4288 179.2482 16.44927659 89909","category":"Other"},{"name":"COSMOS 2434 [GLONASS-M]","line1":"1 32393U 07065A   26132.38841561  .00000063  00000+0  00000+0 0  9995","line2":"2 32393  64.3159 193.1230 0001316  37.3934 317.2266  2.13101512143000","category":"GPS"},{"name":"GLOBAL-7","line1":"1 46088U 20055BP  23296.32829181  .10762421  12527-4  41838-3 0  9995","line2":"2 46088  52.9677 338.7113 0003755 323.9694  36.1100 16.43940931187508","category":"Other"},{"name":"SKYSAT-C19","line1":"1 46235U 20057BS  23361.97036412  .00214458  00000+0  70149-3 0  9998","line2":"2 46235  52.9675 201.9813 0002149 132.3648 227.7558 15.89514628191302","category":"Other"},{"name":"GPS BIII-4","line1":"1 46826U 20078A   26134.30789351  .00000040  00000+0  00000+0 0  9997","line2":"2 46826  53.9846 212.1531 0072044 206.2235 113.0392  2.00564762 40820","category":"GPS"},{"name":"YAOGAN-13","line1":"1 37941U 11072A   25053.20566179  .07261498  27742-5  80897-3 0  9995","line2":"2 37941  97.6847  66.5996 0005273 226.2633 199.5818 16.37208404735572","category":"Other"},{"name":"UMBRA-02","line1":"1 50986U 22002C   24313.04673216  .32110393  24889-5  27703-2 0  9995","line2":"2 50986  97.3417  20.5893 0011601 275.4660 168.0225 16.39253563156501","category":"Other"},{"name":"GSAT0209 (GALILEO 12)","line1":"1 41174U 15079A   26134.01678126  .00000051  00000+0  00000+0 0  9990","line2":"2 41174  55.8082 102.1982 0005676 332.8024  27.1359  1.70473925 64191","category":"GPS"},{"name":"GSAT0214 (GALILEO 18)","line1":"1 41862U 16069D   26134.67694243  .00000045  00000+0  00000+0 0  9997","line2":"2 41862  55.4771 102.0084 0004756 312.1073  47.8157  1.70474032 59077","category":"GPS"},{"name":"COSMOS 2426 (717)","line1":"1 29671U 06062B   08024.12042413 -.00000016  00000-0  10000-3 0  3244","line2":"2 29671  65.0723  60.3269 0019493 177.2358 250.4135  2.13103755  8404","category":"Other"},{"name":"NUSAT-8 (MARIE)","line1":"1 45018U 20003C   23273.74001732  .09169387  24002-5  41399-3 0  9999","line2":"2 45018  97.1425 344.4413 0011737 268.3663  91.6293 16.42177442208316","category":"Other"},{"name":"UMBRA-03","line1":"1 52753U 22057X   24098.77010228  .21177910  26089-5  20633-2 0  9992","line2":"2 52753  97.5144 225.1008 0014921 277.4924 189.5554 16.38013045103927","category":"Other"},{"name":"GLOBAL-8","line1":"1 46089U 20055BQ  24092.55671336  .09707180  12453-4  49477-3 0  9997","line2":"2 46089  52.9591 284.8576 0007876 279.8558  80.1598 16.42294988212494","category":"Other"},{"name":"JILIN-1 GAOFEN 3D07","line1":"1 52392U 22046E   26025.60206785  .07933441  25574-5  83786-3 0  9998","line2":"2 52392  97.4719 145.1450 0008479 283.4988  76.5365 16.37606451208607","category":"Other"},{"name":"NUSAT-12 (DOROTHY)","line1":"1 46827U 20079A   23269.83979816  .07097742  23469-5  86343-3 0  9990","line2":"2 46827  97.1044 344.9336 0011945 264.5650  95.4286 16.36178297162535","category":"Other"},{"name":"NUSAT-23 (ANNIE MAUNDER)","line1":"1 52168U 22033M   23362.43145153  .00025654  00000+0  66742-3 0  9993","line2":"2 52168  97.3379  82.1522 0006398 183.9945 176.1251 15.38873861 97040","category":"Other"},{"name":"GSAT0208 (GALILEO 11)","line1":"1 41175U 15079B   26132.47731976  .00000058  00000+0  00000+0 0  9999","line2":"2 41175  55.8051 102.2375 0005004 333.6656  26.2856  1.70473864 64587","category":"GPS"},{"name":"GALILEO104 [GAL]","line1":"1 38858C 12055B   24170.01020833 -.00000000  00000-0  00000-0 0  1708","line2":"2 38858  55.4156 121.7581 0001481 313.3657 182.5612  1.64592169    16","category":"GPS"},{"name":"COSMOS 2424 (715)","line1":"1 29672U 06062C   08023.88315278 -.00000014  00000-0  10000-3 0  3393","line2":"2 29672  65.0577  60.3196 0016964 177.1506 248.6178  2.13103908  8399","category":"Other"},{"name":"COSMOS 2436 [GLONASS-M]","line1":"1 32395U 07065C   26133.26899799  .00000072  00000+0  00000+0 0  9991","line2":"2 32395  64.3244 193.1651 0017150 356.7973  85.8341  2.13100439142983","category":"GPS"}]}